GLOBALSTAR M023         
1 25621U 99004A   25116.68182884 -.00000128  00000+0 -13444-3 0  9999
2 25621  52.0105 210.2771 0009284  14.6405 150.1195 12.62505114209228
GLOBALSTAR M040         
1 25622U 99004B   25116.71625301 -.00000055  00000+0  27190-3 0  9991
2 25622  51.9909 214.2504 0000454 240.2632 284.3980 12.62008617208751
GLOBALSTAR M036         
1 25623U 99004C   25116.91529291 -.00000006  00000+0  11216-2 0  9992
2 25623  52.0003  15.4628 0010813 317.9336 124.6090 11.86595687172896
GLOBALSTAR M038         
1 25624U 99004D   25116.60983172 -.00000066  00000+0  24165-3 0  9995
2 25624  51.9967 220.1085 0001244 299.9383 165.3937 12.32525686196011
GLOBALSTAR M022         
1 25649U 99012A   25117.19229101 -.00000091  00000+0 -44446-4 0  9995
2 25649  52.0044  69.5251 0002801  69.9499 303.2224 12.02499460170324
GLOBALSTAR M041         
1 25650U 99012B   25116.93271193 -.00000048  00000+0  47938-3 0  9995
2 25650  52.0032 310.1285 0001405 184.5416 175.5408 11.96671827172144
GLOBALSTAR M046         
1 25651U 99012C   25116.94303731 -.00000103  00000+0 -16163-3 0  9990
2 25651  52.0087  22.2090 0002335 134.5898 309.1740 12.09408521177460
GLOBALSTAR M037         
1 25652U 99012D   25117.12836539 -.00000057  00000+0  26072-3 0  9996
2 25652  52.0024 339.5565 0002848  78.0082  64.5634 12.62443938204879
